ONEWEB-0058             
1 45161U 20008AG  25232.13305042  .00000090  00000+0  22078-3 0  9999
2 45161  87.8770  96.3325 0001737  75.6044 284.5276 13.10376783269749
ONEWEB-0059             
1 45162U 20008AH  25231.67144348 -.00000056  00000+0 -19808-3 0  9999
2 45162  87.8775  96.4245 0001703  75.7121 284.4195 13.10376738268835
ONEWEB-0062             
1 45163U 20008AJ  25232.15533408  .00000746  00000+0  21014-2 0  9998
2 45163  87.8763  96.3061 0001385  78.1827 281.9455 13.10372296269516
ONEWEB-0065             
1 45164U 20008AK  25232.13539641  .00000217  00000+0  58574-3 0  9997
2 45164  87.8771  96.3357 0001884  91.0589 269.0755 13.10375095269191
ONEWEB-0066             
1 45424U 20020A   25232.07961866 -.00000401  00000+0 -11670-2 0  9993
2 45424  87.8786  81.0654 0001999  81.1219 279.0135 13.11416268263224
ONEWEB-0067             
1 45425U 20020B   25232.26965003  .00000538  00000+0  14816-2 0  9996
2 45425  87.8773  80.9360 0001933  83.7114 276.4234 13.11417735263303
ONEWEB-0080             
1 45426U 20020C   25232.27886229  .00000221  00000+0  58646-3 0  9999
2 45426  87.8785  81.0263 0001674  71.6950 288.4360 13.11414974263278
ONEWEB-0090             
1 45427U 20020D   25232.14575628 -.00000453  00000+0 -13129-2 0  9999
2 45427  87.8783  81.0540 0001670  83.6980 276.4338 13.11417072263226
ONEWEB-0061             
1 45428U 20020E   25231.64375484  .00000543  00000+0  14963-2 0  9997
2 45428  87.8785  81.1360 0001760  81.6858 278.4469 13.11418965263108
ONEWEB-0081             
1 45429U 20020F   25231.62524209 -.00000190  00000+0 -57191-3 0  9998
2 45429  87.8785  81.1592 0001939  81.6755 278.4593 13.11420166263216
ONEWEB-0069             
1 45430U 20020G   25232.30089184 -.00000546  00000+0 -15772-2 0  9997
2 45430  87.8786  81.0174 0001864  85.3254 274.8087 13.11416367263245
ONEWEB-0031             
1 45431U 20020H   25232.27292422  .00000386  00000+0  10528-2 0  9999
2 45431  87.8783  81.0526 0001518  81.5358 278.5942 13.11414509263217
ONEWEB-0027             
1 45432U 20020J   25232.29489266  .00000010  00000+0 -73445-5 0  9991
2 45432  87.9031  65.7096 0001390  93.9247 266.2043 13.17648281266736
ONEWEB-0064             
1 45433U 20020K   25232.27122879  .00000493  00000+0  13550-2 0  9996
2 45433  87.8779  81.0444 0001572  84.8588 275.2719 13.11414749263250
ONEWEB-0018             
1 45434U 20020L   25232.07454374 -.00000402  00000+0 -11714-2 0  9995
2 45434  87.8778  81.0677 0001747  82.4803 277.6524 13.11417410263175
ONEWEB-0083             
1 45435U 20020M   25232.29325436 -.00000377  00000+0 -10983-2 0  9994
2 45435  87.8787  81.0112 0001668  85.1251 275.0067 13.11414485263240
ONEWEB-0095             
1 45436U 20020N   25231.59827490  .00000419  00000+0  11455-2 0  9994
2 45436  87.8776  81.1722 0001570 112.1233 248.0062 13.11409806263156
