[{"OBJECT_NAME":"ONEWEB-0058","OBJECT_ID":"2020-008AG","EPOCH":"2025-08-20T03:11:35.556288","MEAN_MOTION":13.10376783,"ECCENTRICITY":0.0001737,"INCLINATION":87.877,"RA_OF_ASC_NODE":96.3325,"ARG_OF_PERICENTER":75.6044,"MEAN_ANOMALY":284.5276,"EPHEMERIS_TYPE":0,"CLASSIFICATION_TYPE":"U","NORAD_CAT_ID":45161,"ELEMENT_SET_NO":999,"REV_AT_EPOCH":26974,"BSTAR":0.00022078,"MEAN_MOTION_DOT":9.0e-7,"MEAN_MOTION_DDOT":0},{"OBJECT_NAME":"ONEWEB-0059","OBJECT_ID":"2020-008AH","EPOCH":"2025-08-19T16:06:52.716672","MEAN_MOTION":13.10376738,"ECCENTRICITY":0.0001703,"INCLINATION":87.8775,"RA_OF_ASC_NODE":96.4245,"ARG_OF_PERICENTER":75.7121,"MEAN_ANOMALY":284.4195,"EPHEMERIS_TYPE":0,"CLASSIFICATION_TYPE":"U","NORAD_CAT_ID":45162,"ELEMENT_SET_NO":999,"REV_AT_EPOCH":26883,"BSTAR":-0.00019808,"MEAN_MOTION_DOT":-5.6e-7,"MEAN_MOTION_DDOT":0},{"OBJECT_NAME":"ONEWEB-0062","OBJECT_ID":"2020-008AJ","EPOCH":"2025-08-20T03:43:40.864512","MEAN_MOTION":13.10372296,"ECCENTRICITY":0.0001385,"INCLINATION":87.8763,"RA_OF_ASC_NODE":96.3061,"ARG_OF_PERICENTER":78.1827,"MEAN_ANOMALY":281.9455,"EPHEMERIS_TYPE":0,"CLASSIFICATION_TYPE":"U","NORAD_CAT_ID":45163,"ELEMENT_SET_NO":999,"REV_AT_EPOCH":26951,"BSTAR":0.0021014,"MEAN_MOTION_DOT":7.46e-6,"MEAN_MOTION_DDOT":0},{"OBJECT_NAME":"ONEWEB-0065","OBJECT_ID":"2020-008AK","EPOCH":"2025-08-20T03:14:58.249824","MEAN_MOTION":13.10375095,"ECCENTRICITY":0.0001884,"INCLINATION":87.8771,"RA_OF_ASC_NODE":96.3357,"ARG_OF_PERICENTER":91.0589,"MEAN_ANOMALY":269.0755,"EPHEMERIS_TYPE":0,"CLASSIFICATION_TYPE":"U","NORAD_CAT_ID":45164,"ELEMENT_SET_NO":999,"REV_AT_EPOCH":26919,"BSTAR":0.00058574,"MEAN_MOTION_DOT":2.17e-6,"MEAN_MOTION_DDOT":0},{"OBJECT_NAME":"ONEWEB-0066","OBJECT_ID":"2020-020A","EPOCH":"2025-08-20T01:54:39.052224","MEAN_MOTION":13.11416268,"ECCENTRICITY":0.0001999,"INCLINATION":87.8786,"RA_OF_ASC_NODE":81.0654,"ARG_OF_PERICENTER":81.1219,"MEAN_ANOMALY":279.0135,"EPHEMERIS_TYPE":0,"CLASSIFICATION_TYPE":"U","NORAD_CAT_ID":45424,"ELEMENT_SET_NO":999,"REV_AT_EPOCH":26322,"BSTAR":-0.001167,"MEAN_MOTION_DOT":-4.01e-6,"MEAN_MOTION_DDOT":0},{"OBJECT_NAME":"ONEWEB-0067","OBJECT_ID":"2020-020B","EPOCH":"2025-08-20T06:28:17.762592","MEAN_MOTION":13.11417735,"ECCENTRICITY":0.0001933,"INCLINATION":87.8773,"RA_OF_ASC_NODE":80.936,"ARG_OF_PERICENTER":83.7114,"MEAN_ANOMALY":276.4234,"EPHEMERIS_TYPE":0,"CLASSIFICATION_TYPE":"U","NORAD_CAT_ID":45425,"ELEMENT_SET_NO":999,"REV_AT_EPOCH":26330,"BSTAR":0.0014816,"MEAN_MOTION_DOT":5.38e-6,"MEAN_MOTION_DDOT":0},{"OBJECT_NAME":"ONEWEB-0080","OBJECT_ID":"2020-020C","EPOCH":"2025-08-20T06:41:33.701856","MEAN_MOTION":13.11414974,"ECCENTRICITY":0.0001674,"INCLINATION":87.8785,"RA_OF_ASC_NODE":81.0263,"ARG_OF_PERICENTER":71.695,"MEAN_ANOMALY":288.436,"EPHEMERIS_TYPE":0,"CLASSIFICATION_TYPE":"U","NORAD_CAT_ID":45426,"ELEMENT_SET_NO":999,"REV_AT_EPOCH":26327,"BSTAR":0.00058646,"MEAN_MOTION_DOT":2.21e-6,"MEAN_MOTION_DDOT":0},{"OBJECT_NAME":"ONEWEB-0090","OBJECT_ID":"2020-020D","EPOCH":"2025-08-20T03:29:53.342592","MEAN_MOTION":13.11417072,"ECCENTRICITY":0.000167,"INCLINATION":87.8783,"RA_OF_ASC_NODE":81.054,"ARG_OF_PERICENTER":83.698,"MEAN_ANOMALY":276.4338,"EPHEMERIS_TYPE":0,"CLASSIFICATION_TYPE":"U","NORAD_CAT_ID":45427,"ELEMENT_SET_NO":999,"REV_AT_EPOCH":26322,"BSTAR":-0.0013129,"MEAN_MOTION_DOT":-4.53e-6,"MEAN_MOTION_DDOT":0},{"OBJECT_NAME":"ONEWEB-0061","OBJECT_ID":"2020-020E","EPOCH":"2025-08-19T15:27:00.418176","MEAN_MOTION":13.11418965,"ECCENTRICITY":0.000176,"INCLINATION":87.8785,"RA_OF_ASC_NODE":81.136,"ARG_OF_PERICENTER":81.6858,"MEAN_ANOMALY":278.4469,"EPHEMERIS_TYPE":0,"CLASSIFICATION_TYPE":"U","NORAD_CAT_ID":45428,"ELEMENT_SET_NO":999,"REV_AT_EPOCH":26310,"BSTAR":0.0014963,"MEAN_MOTION_DOT":5.43e-6,"MEAN_MOTION_DDOT":0},{"OBJECT_NAME":"ONEWEB-0081","OBJECT_ID":"2020-020F","EPOCH":"2025-08-19T15:00:20.916576","MEAN_MOTION":13.11420166,"ECCENTRICITY":0.0001939,"INCLINATION":87.8785,"RA_OF_ASC_NODE":81.1592,"ARG_OF_PERICENTER":81.6755,"MEAN_ANOMALY":278.4593,"EPHEMERIS_TYPE":0,"CLASSIFICATION_TYPE":"U","NORAD_CAT_ID":45429,"ELEMENT_SET_NO":999,"REV_AT_EPOCH":26321,"BSTAR":-0.00057191,"MEAN_MOTION_DOT":-1.9e-6,"MEAN_MOTION_DDOT":0},{"OBJECT_NAME":"ONEWEB-0069","OBJECT_ID":"2020-020G","EPOCH":"2025-08-20T07:13:17.054976","MEAN_MOTION":13.11416367,"ECCENTRICITY":0.0001864,"INCLINATION":87.8786,"RA_OF_ASC_NODE":81.0174,"ARG_OF_PERICENTER":85.3254,"MEAN_ANOMALY":274.8087,"EPHEMERIS_TYPE":0,"CLASSIFICATION_TYPE":"U","NORAD_CAT_ID":45430,"ELEMENT_SET_NO":999,"REV_AT_EPOCH":26324,"BSTAR":-0.0015772,"MEAN_MOTION_DOT":-5.46e-6,"MEAN_MOTION_DDOT":0},{"OBJECT_NAME":"ONEWEB-0031","OBJECT_ID":"2020-020H","EPOCH":"2025-08-20T06:33:00.652608","MEAN_MOTION":13.11414509,"ECCENTRICITY":0.0001518,"INCLINATION":87.8783,"RA_OF_ASC_NODE":81.0526,"ARG_OF_PERICENTER":81.5358,"MEAN_ANOMALY":278.5942,"EPHEMERIS_TYPE":0,"CLASSIFICATION_TYPE":"U","NORAD_CAT_ID":45431,"ELEMENT_SET_NO":999,"REV_AT_EPOCH":26321,"BSTAR":0.0010528,"MEAN_MOTION_DOT":3.86e-6,"MEAN_MOTION_DDOT":0},{"OBJECT_NAME":"ONEWEB-0027","OBJECT_ID":"2020-020J","EPOCH":"2025-08-20T07:04:38.725824","MEAN_MOTION":13.17648281,"ECCENTRICITY":0.000139,"INCLINATION":87.9031,"RA_OF_ASC_NODE":65.7096,"ARG_OF_PERICENTER":93.9247,"MEAN_ANOMALY":266.2043,"EPHEMERIS_TYPE":0,"CLASSIFICATION_TYPE":"U","NORAD_CAT_ID":45432,"ELEMENT_SET_NO":999,"REV_AT_EPOCH":26673,"BSTAR":-7.3445e-6,"MEAN_MOTION_DOT":1.0e-7,"MEAN_MOTION_DDOT":0},{"OBJECT_NAME":"ONEWEB-0064","OBJECT_ID":"2020-020K","EPOCH":"2025-08-20T06:30:34.167456","MEAN_MOTION":13.11414749,"ECCENTRICITY":0.0001572,"INCLINATION":87.8779,"RA_OF_ASC_NODE":81.0444,"ARG_OF_PERICENTER":84.8588,"MEAN_ANOMALY":275.2719,"EPHEMERIS_TYPE":0,"CLASSIFICATION_TYPE":"U","NORAD_CAT_ID":45433,"ELEMENT_SET_NO":999,"REV_AT_EPOCH":26325,"BSTAR":0.001355,"MEAN_MOTION_DOT":4.93e-6,"MEAN_MOTION_DDOT":0},{"OBJECT_NAME":"ONEWEB-0018","OBJECT_ID":"2020-020L","EPOCH":"2025-08-20T01:47:20.579136","MEAN_MOTION":13.1141741,"ECCENTRICITY":0.0001747,"INCLINATION":87.8778,"RA_OF_ASC_NODE":81.0677,"ARG_OF_PERICENTER":82.4803,"MEAN_ANOMALY":277.6524,"EPHEMERIS_TYPE":0,"CLASSIFICATION_TYPE":"U","NORAD_CAT_ID":45434,"ELEMENT_SET_NO":999,"REV_AT_EPOCH":26317,"BSTAR":-0.0011714,"MEAN_MOTION_DOT":-4.02e-6,"MEAN_MOTION_DDOT":0},{"OBJECT_NAME":"ONEWEB-0083","OBJECT_ID":"2020-020M","EPOCH":"2025-08-20T07:02:17.176704","MEAN_MOTION":13.11414485,"ECCENTRICITY":0.0001668,"INCLINATION":87.8787,"RA_OF_ASC_NODE":81.0112,"ARG_OF_PERICENTER":85.1251,"MEAN_ANOMALY":275.0067,"EPHEMERIS_TYPE":0,"CLASSIFICATION_TYPE":"U","NORAD_CAT_ID":45435,"ELEMENT_SET_NO":999,"REV_AT_EPOCH":26324,"BSTAR":-0.0010983,"MEAN_MOTION_DOT":-3.77e-6,"MEAN_MOTION_DDOT":0},{"OBJECT_NAME":"ONEWEB-0095","OBJECT_ID":"2020-020N","EPOCH":"2025-08-19T14:21:30.951360","MEAN_MOTION":13.11409806,"ECCENTRICITY":0.000157,"INCLINATION":87.8776,"RA_OF_ASC_NODE":81.1722,"ARG_OF_PERICENTER":112.1233,"MEAN_ANOMALY":248.0062,"EPHEMERIS_TYPE":0,"CLASSIFICATION_TYPE":"U","NORAD_CAT_ID":45436,"ELEMENT_SET_NO":999,"REV_AT_EPOCH":26315,"BSTAR":0.0011455,"MEAN_MOTION_DOT":4.19e-6,"MEAN_MOTION_DDOT":0}]
